NORAD_CAT_ID,OBJECT_NAME,OBJECT_TYPE,EPOCH,MEAN_MOTION,ECCENTRICITY,INCLINATION,RA_OF_ASC_NODE,ARG_OF_PERICENTER,MEAN_ANOMALY,BSTAR,MEAN_MOTION_DOT,MEAN_MOTION_DDOT,TLE_LINE0,TLE_LINE1,TLE_LINE2,SEMIMAJOR_AXIS,PERIOD,APOGEE,PERIGEE,DECAYED
50177.0,STARLINK-3282,PAYLOAD,2024-04-10 12:41:19,15.08862348,0.0001377,53.2147,143.2842,83.8669,276.248,0.00092932,0.00014542,0.0,0 STARLINK-3282,1 50177U 21125X   24101.52869605  .00014542  00000-0  92932-3 0  9994,2 50177  53.2147 143.2842 0001377  83.8669 276.2480 15.08862348130712,6917.812,95.436,540.63,538.724,0.0
50177.0,STARLINK-3282,PAYLOAD,2024-04-11 02:59:47,15.08853496,0.0001446,53.214,140.6066,86.8526,273.2631,0.00027773,4.136e-05,0.0,0 STARLINK-3282,1 50177U 21125X   24102.12485347  .00004136  00000-0  27773-3 0  9997,2 50177  53.2140 140.6066 0001446  86.8526 273.2631 15.08853496130805,6917.839,95.437,540.704,538.704,0.0
50177.0,STARLINK-3282,PAYLOAD,2024-04-11 09:21:20,15.08841823,0.0001443,53.2149,139.4166,89.5774,270.5383,2.884e-05,1.71e-06,0.0,0 STARLINK-3282,1 50177U 21125X   24102.38981625  .00000171  00000-0  28840-4 0  9997,2 50177  53.2149 139.4166 0001443  89.5774 270.5383 15.08841823130842,6917.875,95.437,540.738,538.742,0.0
50177.0,STARLINK-3282,PAYLOAD,2024-04-11 18:53:38,15.08845311,0.0001374,53.2149,137.632,87.7839,272.3311,9.2022e-05,1.177e-05,0.0,0 STARLINK-3282,1 50177U 21125X   24102.78725430  .00001177  00000-0  92022-4 0  9991,2 50177  53.2149 137.6320 0001374  87.7839 272.3311 15.08845311131397,6917.864,95.437,540.68,538.779,0.0
50177.0,STARLINK-3282,PAYLOAD,2024-04-12 09:12:07,15.08842196,0.0001411,53.2157,134.9584,94.5806,265.5348,-3.4606e-05,-8.39e-06,0.0,0 STARLINK-3282,1 50177U 21125X   24103.38341501 -.00000839  00000-0 -34606-4 0  9991,2 50177  53.2157 134.9584 0001411  94.5806 265.5348 15.08842196131482,6917.874,95.437,540.715,538.763,0.0
50177.0,STARLINK-3282,PAYLOAD,2024-04-13 07:27:30,15.08841926,0.0001448,53.2159,130.7957,98.0778,262.0379,0.00015843,2.234e-05,0.0,0 STARLINK-3282,1 50177U 21125X   24104.31077487  .00002234  00000-0  15843-3 0  9994,2 50177  53.2159 130.7957 0001448  98.0778 262.0379 15.08841926131137,6917.875,95.437,540.741,538.738,0.0
50177.0,STARLINK-3282,PAYLOAD,2024-04-14 08:53:41,15.08838321,0.0001377,53.215,126.0344,91.7356,268.3794,3.0494e-05,1.97e-06,0.0,0 STARLINK-3282,1 50177U 21125X   24105.37061786  .00000197  00000-0  30494-4 0  9992,2 50177  53.2150 126.0344 0001377  91.7356 268.3794 15.08838321131291,6917.886,95.438,540.703,538.798,0.0
50177.0,STARLINK-3282,PAYLOAD,2024-04-15 10:19:51,15.08839633,0.0001504,53.2159,121.2772,82.9446,277.1717,0.00010069,1.315e-05,0.0,0 STARLINK-3282,1 50177U 21125X   24106.43046043  .00001315  00000-0  10069-3 0  9997,2 50177  53.2159 121.2772 0001504  82.9446 277.1717 15.08839633131454,6917.882,95.438,540.787,538.706,0.0
50177.0,STARLINK-3282,PAYLOAD,2024-04-15 18:16:47,15.08843831,0.0001405,53.2158,119.7911,92.8615,267.2538,0.00016835,2.393e-05,0.0,0 STARLINK-3282,1 50177U 21125X   24106.76165811  .00002393  00000-0  16835-3 0  9992,2 50177  53.2158 119.7911 0001405  92.8615 267.2538 15.08843831131993,6917.869,95.437,540.706,538.762,0.0
50177.0,STARLINK-3282,PAYLOAD,2024-04-16 10:10:38,15.08845951,0.0001597,53.2165,116.8155,103.7165,256.4005,0.0002015,2.921e-05,0.0,0 STARLINK-3282,1 50177U 21125X   24107.42405793  .00002921  00000-0  20150-3 0  9994,2 50177  53.2165 116.8155 0001597 103.7165 256.4005 15.08845951132099,6917.862,95.437,540.832,538.622,0.0
50177.0,STARLINK-3282,PAYLOAD,2024-04-17 05:15:15,15.08851789,0.0001562,53.2162,113.2475,100.4494,259.6675,0.00024499,3.614e-05,0.0,0 STARLINK-3282,1 50177U 21125X   24108.21893376  .00003614  00000-0  24499-3 0  9990,2 50177  53.2162 113.2475 0001562 100.4494 259.6675 15.08851789131726,6917.844,95.437,540.79,538.629,0.0
50177.0,STARLINK-3282,PAYLOAD,2024-04-17 10:01:25,15.08850164,0.0001536,53.2162,112.3555,99.5379,260.5787,0.00018442,2.649e-05,0.0,0 STARLINK-3282,1 50177U 21125X   24108.41765348  .00002649  00000-0  18442-3 0  9997,2 50177  53.2162 112.3555 0001536  99.5379 260.5787 15.08850164132245,6917.849,95.437,540.777,538.652,0.0
50177.0,STARLINK-3282,PAYLOAD,2024-04-18 03:30:40,15.08837957,0.0001486,53.2159,109.0821,108.5534,251.562,-1.0489e-06,-3.05e-06,0.0,0 STARLINK-3282,1 50177U 21125X   24109.14629761 -.00000305  00000-0 -10489-5 0  9990,2 50177  53.2159 109.0821 0001486 108.5534 251.5620 15.08837957131866,6917.887,95.438,540.78,538.724,0.0
50177.0,STARLINK-3282,PAYLOAD,2024-04-18 09:52:13,15.08833645,0.0001454,53.2172,107.895,100.8537,259.2619,-7.7249e-05,-1.517e-05,0.0,0 STARLINK-3282,1 50177U 21125X   24109.41126540 -.00001517  00000-0 -77249-4 0  9999,2 50177  53.2172 107.8950 0001454 100.8537 259.2619 15.08833645131901,6917.9,95.438,540.771,538.759,0.0
50177.0,STARLINK-3282,PAYLOAD,2024-04-19 04:56:50,15.08839482,0.0001335,53.217,104.3264,100.367,259.7472,1.711e-05,-1.6e-07,0.0,0 STARLINK-3282,1 50177U 21125X   24110.20613967 -.00000016  00000-0  17110-4 0  9995,2 50177  53.2170 104.3264 0001335 100.3670 259.7472 15.08839482132021,6917.882,95.438,540.671,538.823,0.0
50177.0,STARLINK-3282,PAYLOAD,2024-04-19 09:42:59,15.08840692,0.0001353,53.2169,103.434,102.4187,257.6957,2.8758e-05,1.7e-06,0.0,0 STARLINK-3282,1 50177U 21125X   24110.40485854  .00000170  00000-0  28758-4 0  9999,2 50177  53.2169 103.4340 0001353 102.4187 257.6957 15.08840692132547,6917.878,95.438,540.679,538.807,0.0
50177.0,STARLINK-3282,PAYLOAD,2024-04-20 07:58:23,15.0883623,0.000132,53.2174,99.2714,97.8806,262.2336,0.00014819,2.071e-05,0.0,0 STARLINK-3282,1 50177U 21125X   24111.33222111  .00002071  00000-0  14819-3 0  9991,2 50177  53.2174  99.2714 0001320  97.8806 262.2336 15.08836230132196,6917.892,95.438,540.67,538.844,0.0
50177.0,STARLINK-3282,PAYLOAD,2024-04-21 04:38:26,15.08827193,0.0001465,53.2174,95.4066,105.9218,254.1935,-3.967e-05,-9.19e-06,0.0,0 STARLINK-3282,1 50177U 21125X   24112.19335810 -.00000919  00000-0 -39670-4 0  9991,2 50177  53.2174  95.4066 0001465 105.9218 254.1935 15.08827193132320,6917.92,95.438,540.798,538.771,0.0
50177.0,STARLINK-3282,PAYLOAD,2024-04-21 07:49:12,15.08822825,0.000142,53.217,94.8116,104.1587,255.9563,-8.2135e-05,-1.594e-05,0.0,0 STARLINK-3282,1 50177U 21125X   24112.32584282 -.00001594  00000-0 -82135-4 0  9999,2 50177  53.2170  94.8116 0001420 104.1587 255.9563 15.08822825132835,6917.933,95.439,540.78,538.816,0.0
50177.0,STARLINK-3282,PAYLOAD,2024-04-22 04:29:12,15.08840395,0.0001762,53.218,90.9481,64.6412,295.4763,5.64e-05,6.1e-06,0.0,0 STARLINK-3282,1 50177U 21125X   24113.18695335  .00000610  00000-0  56400-4 0  9998,2 50177  53.2180  90.9481 0001762  64.6412 295.4763 15.08840395132477,6917.879,95.438,540.963,538.525,0.0
50177.0,STARLINK-3282,PAYLOAD,2024-04-22 06:04:34,15.08851664,0.0001486,53.2172,90.6502,107.1429,252.9726,0.00022649,3.32e-05,0.0,0 STARLINK-3282,1 50177U 21125X   24113.25317952  .00003320  00000-0  22649-3 0  9990,2 50177  53.2172  90.6502 0001486 107.1429 252.9726 15.08851664132482,6917.845,95.437,540.738,538.682,0.0
50177.0,STARLINK-3282,PAYLOAD,2024-04-23 04:19:59,15.0883388,0.0001586,53.2185,86.4866,97.0185,263.0988,0.00018232,2.614e-05,0.0,0 STARLINK-3282,1 50177U 21125X   24114.18055124  .00002614  00000-0  18232-3 0  9991,2 50177  53.2185  86.4866 0001586  97.0185 263.0988 15.08833880132628,6917.899,95.438,540.861,538.667,0.0
50177.0,STARLINK-3282,PAYLOAD,2024-04-23 07:30:46,15.08832483,0.0001509,53.2179,85.8926,93.8662,266.2503,0.00015923,2.247e-05,0.0,0 STARLINK-3282,1 50177U 21125X   24114.31303300  .00002247  00000-0  15923-3 0  9994,2 50177  53.2179  85.8926 0001509  93.8662 266.2503 15.08832483133133,6917.903,95.438,540.812,538.724,0.0
50177.0,STARLINK-3282,PAYLOAD,2024-04-24 02:35:25,15.08828452,0.0001832,53.2193,82.3148,92.0006,268.1196,-0.00023697,-4.056e-05,0.0,0 STARLINK-3282,1 50177U 21125X   24115.10793582 -.00004056  00000-0 -23697-3 0  9996,2 50177  53.2193  82.3148 0001832  92.0006 268.1196 15.08828452132767,6917.916,95.438,541.048,538.513,0.0
50177.0,STARLINK-3282,PAYLOAD,2024-04-24 07:21:34,15.08832716,0.0002431,53.2197,81.4205,98.0326,262.0942,-0.00018786,-3.276e-05,0.0,0 STARLINK-3282,1 50177U 21125X   24115.30665313 -.00003276  00000-0 -18786-3 0  9994,2 50177  53.2197  81.4205 0002431  98.0326 262.0942 15.08832716133280,6917.903,95.438,541.449,538.086,0.0
50177.0,STARLINK-3282,PAYLOAD,2024-04-25 04:01:32,15.08855834,0.0001766,53.2192,77.5591,107.0866,253.032,0.00020451,2.97e-05,0.0,0 STARLINK-3282,1 50177U 21125X   24116.16774158  .00002970  00000-0  20451-3 0  9997,2 50177  53.2192  77.5591 0001766 107.0866 253.0320 15.08855834132925,6917.832,95.437,540.919,538.475,0.0
50177.0,STARLINK-3282,PAYLOAD,2024-04-25 07:12:19,15.08854973,0.000164,53.2179,76.9645,101.6155,258.5022,0.00025008,3.696e-05,0.0,0 STARLINK-3282,1 50177U 21125X   24116.30022142  .00003696  00000-0  25008-3 0  9991,2 50177  53.2179  76.9645 0001640 101.6155 258.5022 15.08854973133434,6917.835,95.437,540.834,538.565,0.0
50177.0,STARLINK-3282,PAYLOAD,2024-04-25 21:30:48,15.08851356,0.000159,53.2194,74.2964,82.0935,278.0237,5.1132e-05,5.26e-06,0.0,0 STARLINK-3282,1 50177U 21125X   24116.89639455  .00000526  00000-0  51132-4 0  9993,2 50177  53.2194  74.2964 0001590  82.0935 278.0237 15.08851356133031,6917.846,95.437,540.811,538.611,0.0
50177.0,STARLINK-3282,PAYLOAD,2024-04-26 07:03:07,15.08845601,0.0001523,53.2188,72.5091,80.244,279.8724,7.6905e-06,-1.66e-06,0.0,0 STARLINK-3282,1 50177U 21125X   24117.29383619 -.00000166  00000-0  76905-5 0  9993,2 50177  53.2188  72.5091 0001523  80.2440 279.8724 15.08845601133095,6917.863,95.437,540.782,538.675,0.0
50177.0,STARLINK-3282,PAYLOAD,2024-04-26 19:46:12,15.08847585,0.0001739,53.2177,70.1292,102.5173,257.6014,-2.6778e-05,-7.14e-06,0.0,0 STARLINK-3282,1 50177U 21125X   24117.82375267 -.00000714  00000-0 -26778-4 0  9994,2 50177  53.2177  70.1292 0001739 102.5173 257.6014 15.08847585133662,6917.857,95.437,540.925,538.519,0.0
